[{"OBJECT_NAME":"STRIX-4","OBJECT_ID":"2024-137A","EPOCH":"2026-03-09T15:41:49.501824","MEAN_MOTION":15.29026224,"ECCENTRICITY":0.00168396,"INCLINATION":43.0134,"RA_OF_ASC_NODE":129.8162,"ARG_OF_PERICENTER":5.2738,"MEAN_ANOMALY":354.8289,"EPHEMERIS_TYPE":0,"CLASSIFICATION_TYPE":"U","NORAD_CAT_ID":60352,"ELEMENT_SET_NO":999,"REV_AT_EPOCH":8876,"BSTAR":0.00071819834,"MEAN_MOTION_DOT":0.0002053,"MEAN_MOTION_DDOT":0},{"OBJECT_NAME":"STARLINK-35175","OBJECT_ID":"2025-225V","EPOCH":"2026-03-09T12:40:38.991648","MEAN_MOTION":15.30192886,"ECCENTRICITY":9.806e-5,"INCLINATION":53.16,"RA_OF_ASC_NODE":166.409,"ARG_OF_PERICENTER":69.0864,"MEAN_ANOMALY":291.0242,"EPHEMERIS_TYPE":0,"CLASSIFICATION_TYPE":"U","NORAD_CAT_ID":65929,"ELEMENT_SET_NO":999,"REV_AT_EPOCH":2438,"BSTAR":0.0009673652,"MEAN_MOTION_DOT":0.00028395,"MEAN_MOTION_DDOT":0}]
